*******************************************************************************
 Revised: April 12, 2021             Mercury                            199 / 1

 PHYSICAL DATA (updated 2024-Mar-04):
  Vol. Mean Radius (km) =  2439.4+-0.1    Density (g cm^-3)     = 5.427
  Mass x10^23 (kg)      =     3.302       Volume (x10^10 km^3)  = 6.085  
  Sidereal rot. period  =    58.6463 d    Sid. rot. rate (rad/s)= 0.00000124001
  Mean solar day        =   175.9421 d    Core radius (km)      = ~1600 
  Geometric Albedo      =     0.106       Surface emissivity    = 0.77+-0.06
  GM (km^3/s^2)         = 22031.86855     Equatorial radius, Re = 2440.53 km
  GM 1-sigma (km^3/s^2) =                 Mass ratio (Sun/plnt) = 6023682
  Mom. of Inertia       =     0.33        Equ. gravity  m/s^2   = 3.701     
  Atmos. pressure (bar) = < 5x10^-15      Max. angular diam.    = 11.0"   
  Mean Temperature (K)  = 440             Visual mag. V(1,0)    = -0.42 
  Obliquity to orbit[1] =  2.11' +/- 0.1' Hill's sphere rad. Rp = 94.4 
  Sidereal orb. per.    =  0.2408467 y    Mean Orbit vel.  km/s = 47.362 
  Sidereal orb. per.    = 87.969257  d    Escape vel. km/s      =  4.435
                                 Perihelion  Aphelion    Mean
  Solar Constant (W/m^2)         14462       6278        9126
  Maximum Planetary IR (W/m^2)   12700       5500        8000
  Minimum Planetary IR (W/m^2)   6           6           6
*******************************************************************************


*******************************************************************************
Ephemeris / WWW_USER Mon May 20 07:38:47 2024 Pasadena, USA      / Horizons    
*******************************************************************************
Target body name: Mercury (199)                   {source: DE441}
Center body name: Sun (10)                        {source: DE441}
Center-site name: BODYCENTRIC
*******************************************************************************
Start time      : A.D. 1955-Jan-01 00:00:00.0000 UT      
Stop  time      : A.D. 2060-Jan-01 00:00:00.0000 UT      
Step-size       : 14400 minutes
*******************************************************************************
Target pole/equ : IAU_MERCURY                     {West-longitude positive}
Target radii    : 2440.53, 2440.53, 2438.26 km    {Equator_a, b, pole_c}       
Center geodetic : 0.0, 0.0, -695700.0             {E-lon(deg),Lat(deg),Alt(km)}
Center cylindric: 0.0, 0.0, 0.0                   {E-lon(deg),Dxy(km),Dz(km)}
Center pole/equ : IAU_SUN                         {East-longitude positive}
Center radii    : 695700.0, 695700.0, 695700.0 km {Equator_a, b, pole_c}       
Target primary  : Sun
Vis. interferer : None
Rel. light bend : Sun                             {source: DE441}
Rel. lght bnd GM: 1.3271E+11 km^3/s^2                                          
Atmos refraction: NO (AIRLESS)
RA format       : DEG
Time format     : CAL 
Calendar mode   : Mixed Julian/Gregorian
EOP file        : eop.240517.p240810                                           
EOP coverage    : DATA-BASED 1962-JAN-20 TO 2024-MAY-17. PREDICTS-> 2024-AUG-09
Units conversion: 1 au= 149597870.700 km, c= 299792.458 km/s, 1 day= 86400.0 s 
Table cut-offs 1: Elevation (-90.0deg=NO ),Airmass     n.a.    , Daylight (NO )
Table cut-offs 2: Solar elongation (  0.0,180.0=NO ),Local Hour Angle( 0.0=NO )
Table cut-offs 3: RA/DEC angular rate (     0.0=NO )                           
Table format    : Comma Separated Values (spreadsheet)
*******************************************************************************
 Date__(UT)__HR:MN, , , hEcl-Lon,hEcl-Lat,      PlAng,  Tru_Anom,  App_Lon_Sun,
*******************************************************************************
$$SOE
 2024-Jul-27 00:00, , , 255.5351, -3.2178,   -0.01015,  178.2148,  227.5864471,
 2024-Aug-06 00:00, , , 283.5196, -5.7616,   -0.00936,  206.2250,  255.5914097,
 2024-Aug-16 00:00, , , 315.1026, -6.9927,   -0.00908,  237.6310,  286.9862788,
 2024-Aug-26 00:00, , , 355.0637, -5.6206,   -0.00916,  277.3628,  326.7138881,
 2024-Sep-05 00:00, , ,  48.5217,  0.0272,   -0.00893,  331.0281,   20.3844384,
 2024-Sep-15 00:00, , , 110.7405,  6.2154,   -0.00712,   33.4210,   82.7814636,
 2024-Sep-25 00:00, , , 163.6456,  6.3352,   -0.00467,   85.9849,  135.3510010,
 2024-Oct-05 00:00, , , 202.5549,  3.0545,   -0.00283,  124.8914,  174.2662201,
 2024-Oct-15 00:00, , , 233.3592, -0.6207,   -0.00150,  155.9016,  205.2836620,
 2024-Oct-25 00:00, , , 261.1118, -3.8085,   -0.00039,  183.8120,  233.1942469,
 2024-Nov-04 00:00, , , 289.5111, -6.1450,    0.00071,  212.1963,  261.5673976,
 2024-Nov-14 00:00, , , 322.3565, -6.9861,    0.00202,  244.8309,  294.1812639,
 2024-Nov-24 00:00, , ,   4.7242, -4.8402,    0.00380,  287.0144,  336.3562347,
 2024-Dec-04 00:00, , ,  60.9739,  1.5439,    0.00588,  343.5707,   32.9175789,
 2024-Dec-14 00:00, , , 122.7075,  6.7482,    0.00702,   45.3230,   94.6721874,
 2024-Dec-24 00:00, , , 172.5172,  5.8004,    0.00720,   94.8228,  144.1788932,
 2025-Jan-03 00:00, , , 209.2710,  2.2937,    0.00740,  131.6428,  181.0088095,
 2025-Jan-13 00:00, , , 239.1112, -1.3200,    0.00793,  161.6946,  211.0661626,
 2025-Jan-23 00:00, , , 266.7139, -4.3649,    0.00891,  189.4268,  238.7970490,
 2025-Feb-02 00:00, , , 295.6802, -6.4695,    0.01050,  218.3357,  267.7006742,
 2025-Feb-12 00:00, , , 329.9982, -6.8594,    0.01305,  252.4166,  301.7783449,
 2025-Feb-22 00:00, , ,  14.9977, -3.8587,    0.01674,  297.3036,  346.6683643,
 2025-Mar-04 00:00, , ,  73.7103,  3.0175,    0.01989,  356.3800,   45.7504866,
 2025-Mar-14 00:00, , , 134.0906,  6.9848,    0.01936,   56.6249,  105.9966027,
 2025-Mar-24 00:00, , , 180.8364,  5.1722,    0.01747,  103.1254,  152.4940419,
 2025-Apr-03 00:00, , , 215.7103,  1.5338,    0.01642,  138.1213,  187.4951505,
 2025-Apr-13 00:00, , , 244.7746, -1.9953,    0.01643,  167.3943,  216.7748193,
 2025-Apr-23 00:00, , , 272.3704, -4.8838,    0.01746,  195.0874,  244.4667201,
 2025-May-03 00:00, , , 302.0633, -6.7268,    0.01972,  224.6804,  274.0560360,
 2025-May-13 00:00, , , 338.0791, -6.5940,    0.02365,  260.4449,  309.8214670,
 2025-May-23 00:00, , ,  25.8961, -2.6806,    0.02916,  308.2466,  357.6289789,
 2025-Jun-02 00:00, , ,  86.5423,  4.3485,    0.03234,    9.2534,   58.6393836,
 2025-Jun-12 00:00, , , 144.8307,  6.9585,    0.02968,   67.2849,  116.6720504,
 2025-Jun-22 00:00, , , 188.6648,  4.4807,    0.02614,  110.9566,  160.3495108,
 2025-Jul-02 00:00, , , 221.9194,  0.7821,    0.02427,  144.3745,  193.7755973,
 2025-Jul-12 00:00, , , 250.3813, -2.6442,    0.02404,  173.0338,  222.4378719,
 2025-Jul-22 00:00, , , 278.1129, -5.3614,    0.02536,  200.8267,  250.2220537,
 2025-Aug-01 00:00, , , 308.7035, -6.9064,    0.02847,  231.2760,  280.6538079,
 2025-Aug-11 00:00, , , 346.6562, -6.1700,    0.03395,  268.9791,  318.3485305,
 2025-Aug-21 00:00, , ,  37.4032, -1.3302,    0.04099,  319.8253,    9.1993418,
 2025-Aug-31 00:00, , ,  99.2617,  5.4506,    0.04313,   21.9738,   71.3462104,
 2025-Sep-10 00:00, , , 154.9080,  6.7140,    0.03825,   77.2935,  126.6635461,
 2025-Sep-20 00:00, , , 196.0591,  3.7495,    0.03352,  118.3679,  167.7443927,
 2025-Sep-30 00:00, , , 227.9370,  0.0445,    0.03115,  150.4369,  199.8212899,
 2025-Oct-10 00:00, , , 255.9593, -3.2640,    0.03090,  178.6387,  228.0260751,
 2025-Oct-20 00:00, , , 283.9701, -5.7927,    0.03264,  206.6721,  256.0572760,
 2025-Oct-30 00:00, , , 315.6417, -6.9960,    0.03674,  238.1638,  287.5458917,
 2025-Nov-09 00:00, , , 355.7767, -5.5681,    0.04380,  278.0719,  327.4552491,
 2025-Nov-19 00:00, , ,  49.4533,  0.1418,    0.05178,  331.9643,   21.3531738,
 2025-Nov-29 00:00, , , 111.6674,  6.2667,    0.05189,   34.3415,   83.7326061,
 2025-Dec-09 00:00, , , 164.3405,  6.2984,    0.04505,   86.6745,  136.0684635,
 2025-Dec-19 00:00, , , 203.0767,  2.9966,    0.03956,  125.4137,  174.8160726,
 2025-Dec-29 00:00, , , 233.8010, -0.6748,    0.03697,  156.3446,  205.7526762,
 2026-Jan-08 00:00, , , 261.5373, -3.8522,    0.03687,  184.2365,  233.6333345,
 2026-Jan-18 00:00, , , 289.9743, -6.1718,    0.03916,  212.6552,  262.0117762,
 2026-Jan-28 00:00, , , 322.9237, -6.9808,    0.04435,  245.3911,  294.6979087,
 2026-Feb-07 00:00, , ,   5.4828, -4.7726,    0.05293,  287.7699,  337.0631685,
 2026-Feb-17 00:00, , ,  61.9319,  1.6586,    0.06100,  344.5313,   33.8302124,
 2026-Feb-27 00:00, , , 123.5917,  6.7761,    0.05846,   46.1974,   95.4977214,
 2026-Mar-09 00:00, , , 173.1670,  5.7554,    0.05015,   95.4667,  144.7644704,
 2026-Mar-19 00:00, , , 209.7694,  2.2355,    0.04431,  132.1406,  181.4433221,
 2026-Mar-29 00:00, , , 239.5448, -1.3725,    0.04174,  162.1281,  211.4384837,
 2026-Apr-08 00:00, , , 267.1423, -4.4059,    0.04193,  189.8529,  239.1647720,
 2026-Apr-18 00:00, , , 296.1581, -6.4916,    0.04487,  218.8082,  268.1154785,
 2026-Apr-28 00:00, , , 330.5967, -6.8442,    0.05120,  253.0082,  302.3111431,
 2026-May-08 00:00, , ,  15.8035, -3.7757,    0.06107,  298.1091,  347.4139888,
 2026-May-18 00:00, , ,  74.6829,  3.1248,    0.06818,  357.3543,   46.6648980,
 2026-May-28 00:00, , , 134.9283,  6.9914,    0.06282,   57.4536,  106.7615098,
 2026-Jun-07 00:00, , , 181.4472,  5.1214,    0.05364,  103.7336,  153.0335735,
 2026-Jun-17 00:00, , , 216.1898,  1.4760,    0.04779,  138.6025,  187.9075137,
 2026-Jun-27 00:00, , , 245.2029, -2.0458,    0.04542,  167.8237,  217.1336664,
 2026-Jul-07 00:00, , , 272.8045, -4.9218,    0.04601,  195.5201,  244.8209532,
 2026-Jul-17 00:00, , , 302.5599, -6.7433,    0.04967,  225.1725,  274.4539705,
 2026-Jul-27 00:00, , , 338.7145, -6.5674,    0.05714,  261.0752,  310.3464425,
 2026-Aug-06 00:00, , ,  26.7504, -2.5832,    0.06792,  309.1039,  358.3781766,
 2026-Aug-16 00:00, , ,  87.5141,  4.4412,    0.07307,   10.2249,   59.5036970,
 2026-Aug-26 00:00, , , 145.6176,  6.9468,    0.06523,   68.0641,  117.3419655,
